{
  "type": "FeatureCollection",
  "name": "sample",
  "crs": {
    "type": "name",
    "properties": {
      "name": "urn:ogc:def:crs:OGC:1.3:CRS84"
    }
  },
  "features": [
    {
      "type": "Feature",
      "properties": {
        "name": "Brasilia"
      },
      "geometry": {
        "type": "Point",
        "coordinates": [
          -47.8825,
          -15.7942
        ]
      }
    },
    {
      "type": "Feature",
      "properties": {
        "name": "Goiania"
      },
      "geometry": {
        "type": "Point",
        "coordinates": [
          -49.2643,
          -16.6869
        ]
      }
    }
  ]
}